NORAD_CAT_ID,OBJECT_NAME,OBJECT_TYPE,EPOCH,MEAN_MOTION,ECCENTRICITY,INCLINATION,RA_OF_ASC_NODE,ARG_OF_PERICENTER,MEAN_ANOMALY,BSTAR,MEAN_MOTION_DOT,MEAN_MOTION_DDOT,TLE_LINE0,TLE_LINE1,TLE_LINE2,SEMIMAJOR_AXIS,PERIOD,APOGEE,PERIGEE,DECAYED
52575.0,STARLINK-3920,PAYLOAD,2024-04-27 20:52:29,15.08865393,0.000142,53.2183,295.4433,86.3256,273.7898,0.00060473,9.356e-05,0.0,0 STARLINK-3920,1 52575U 22051AR  24118.86978302  .00009356  00000-0  60473-3 0  9999,2 52575  53.2183 295.4433 0001420  86.3256 273.7898 15.08865393108804,6917.803,95.436,540.65,538.685,0.0
52575.0,STARLINK-3920,PAYLOAD,2024-04-28 04:49:25,15.08842371,0.0002509,53.2182,293.9565,83.8847,276.2431,2.3394e-05,8.4e-07,0.0,0 STARLINK-3920,1 52575U 22051AR  24119.20099208  .00000084  00000-0  23394-4 0  9998,2 52575  53.2182 293.9565 0002509  83.8847 276.2431 15.08842371108924,6917.873,95.437,541.474,538.002,0.0
52575.0,STARLINK-3920,PAYLOAD,2024-04-28 11:10:58,15.08840052,0.0002149,53.2177,292.7671,85.6284,274.4954,-1.031e-05,-4.52e-06,0.0,0 STARLINK-3920,1 52575U 22051AR  24119.46594971 -.00000452  00000-0 -10310-4 0  9998,2 52575  53.2177 292.7671 0002149  85.6284 274.4954 15.08840052108898,6917.88,95.438,541.232,538.259,0.0
52575.0,STARLINK-3920,PAYLOAD,2024-04-28 19:07:53,15.08826341,0.0001152,53.2162,291.2805,92.578,267.5344,-0.00029273,-4.942e-05,0.0,0 STARLINK-3920,1 52575U 22051AR  24119.79715274 -.00004942  00000-0 -29273-3 0  9990,2 52575  53.2162 291.2805 0001152  92.5780 267.5344 15.08826341109012,6917.922,95.438,540.584,538.99,0.0
52575.0,STARLINK-3920,PAYLOAD,2024-04-29 11:01:45,15.08834573,0.0001093,53.2167,288.3054,89.2741,270.8377,3.4176e-05,2.56e-06,0.0,0 STARLINK-3920,1 52575U 22051AR  24120.45955653  .00000256  00000-0  34176-4 0  9993,2 52575  53.2167 288.3054 0001093  89.2741 270.8377 15.08834573109114,6917.897,95.438,540.518,539.006,0.0
52575.0,STARLINK-3920,PAYLOAD,2024-04-29 17:23:18,15.0883876,0.0001055,53.2162,287.1154,92.1856,267.9256,0.00026655,3.957e-05,0.0,0 STARLINK-3920,1 52575U 22051AR  24120.72451666  .00003957  00000-0  26655-3 0  9991,2 52575  53.2162 287.1154 0001055  92.1856 267.9256 15.08838760109086,6917.884,95.438,540.479,539.019,0.0
52575.0,STARLINK-3920,PAYLOAD,2024-04-30 04:31:00,15.08847282,0.0001128,53.2163,285.0346,90.2076,269.9045,0.00050753,7.8e-05,0.0,0 STARLINK-3920,1 52575U 22051AR  24121.18819552  .00007800  00000-0  50753-3 0  9991,2 52575  53.2163 285.0346 0001128  90.2076 269.9045 15.08847282109224,6917.858,95.437,540.503,538.943,0.0
52575.0,STARLINK-3920,PAYLOAD,2024-04-30 14:03:18,15.08850688,0.0001148,53.2165,283.2505,91.4543,268.658,0.00048504,7.442e-05,0.0,0 STARLINK-3920,1 52575U 22051AR  24121.58563456  .00007442  00000-0  48504-3 0  9997,2 52575  53.2165 283.2505 0001148  91.4543 268.6580 15.08850688109210,6917.848,95.437,540.507,538.919,0.0
52575.0,STARLINK-3920,PAYLOAD,2024-04-30 17:14:04,15.08854852,0.0001147,53.2167,282.6558,90.4484,269.664,0.00051449,7.913e-05,0.0,0 STARLINK-3920,1 52575U 22051AR  24121.71811260  .00007913  00000-0  51449-3 0  9996,2 52575  53.2167 282.6558 0001147  90.4484 269.6640 15.08854852109232,6917.835,95.437,540.493,538.907,0.0
52575.0,STARLINK-3920,PAYLOAD,2024-05-01 10:43:19,15.08848687,0.000117,53.2163,279.3829,96.9718,263.1407,0.00028387,4.234e-05,0.0,0 STARLINK-3920,1 52575U 22051AR  24122.44675293  .00004234  00000-0  28387-3 0  9999,2 52575  53.2163 279.3829 0001170  96.9718 263.1407 15.08848687109418,6917.854,95.437,540.528,538.909,0.0
52575.0,STARLINK-3920,PAYLOAD,2024-05-02 10:34:07,15.08832834,0.0001288,53.2169,274.9213,106.9572,253.1562,7.6773e-05,9.34e-06,0.0,0 STARLINK-3920,1 52575U 22051AR  24123.44035974  .00000934  00000-0  76773-4 0  9992,2 52575  53.2169 274.9213 0001288 106.9572 253.1562 15.08832834109566,6917.902,95.438,540.658,538.876,0.0
52575.0,STARLINK-3920,PAYLOAD,2024-05-02 13:44:53,15.08834291,0.0001132,53.2152,274.3266,105.9899,254.1217,-1.4468e-06,-3.11e-06,0.0,0 STARLINK-3920,1 52575U 22051AR  24123.57283987 -.00000311  00000-0 -14468-5 0  9990,2 52575  53.2152 274.3266 0001132 105.9899 254.1217 15.08834291109511,6917.898,95.438,540.546,538.98,0.0
52575.0,STARLINK-3920,PAYLOAD,2024-05-03 13:35:39,15.08852206,0.0001111,53.2161,269.866,76.57,283.5416,0.00037696,5.719e-05,0.0,0 STARLINK-3920,1 52575U 22051AR  24124.56643248  .00005719  00000-0  37696-3 0  9991,2 52575  53.2161 269.8660 0001111  76.5700 283.5416 15.08852206109736,6917.843,95.437,540.477,538.94,0.0
52575.0,STARLINK-3920,PAYLOAD,2024-05-03 15:11:02,15.08857273,0.000115,53.2162,269.5692,77.924,282.1881,0.00047336,7.257e-05,0.0,0 STARLINK-3920,1 52575U 22051AR  24124.63267171  .00007257  00000-0  47336-3 0  9997,2 52575  53.2162 269.5692 0001150  77.9240 282.1881 15.08857273109679,6917.828,95.436,540.488,538.897,0.0
52575.0,STARLINK-3920,PAYLOAD,2024-05-03 16:46:25,15.08862696,0.000114,53.2164,269.2737,84.8395,275.2727,0.00057783,8.926e-05,0.0,0 STARLINK-3920,1 52575U 22051AR  24124.69890964  .00008926  00000-0  57783-3 0  9996,2 52575  53.2164 269.2737 0001140  84.8395 275.2727 15.08862696109683,6917.811,95.436,540.465,538.887,0.0
52575.0,STARLINK-3920,PAYLOAD,2024-05-04 13:26:27,15.08836423,0.0001613,53.2163,265.4073,97.41,262.7075,-0.00020865,-3.607e-05,0.0,0 STARLINK-3920,1 52575U 22051AR  24125.56003563 -.00003607  00000-0 -20865-3 0  9998,2 52575  53.2163 265.4073 0001613  97.4100 262.7075 15.08836423109880,6917.891,95.438,540.872,538.64,0.0
52575.0,STARLINK-3920,PAYLOAD,2024-05-05 13:17:14,15.08844029,0.0001067,53.2165,260.9478,104.7703,255.3407,0.00088227,0.00013783,0.0,0 STARLINK-3920,1 52575U 22051AR  24126.55364141  .00013783  00000-0  88227-3 0  9990,2 52575  53.2165 260.9478 0001067 104.7703 255.3407 15.08844029109962,6917.868,95.437,540.471,538.995,0.0
52575.0,STARLINK-3920,PAYLOAD,2024-05-05 16:28:00,15.08848635,0.0001038,53.2163,260.3528,103.6288,256.482,0.00095293,0.00014914,0.0,0 STARLINK-3920,1 52575U 22051AR  24126.68612066  .00014914  00000-0  95293-3 0  9994,2 52575  53.2163 260.3528 0001038 103.6288 256.4820 15.08848635110054,6917.854,95.437,540.437,539.001,0.0
52575.0,STARLINK-3920,PAYLOAD,2024-05-06 02:00:19,15.08847702,9.7e-05,53.215,258.5655,88.8922,271.2182,0.0006244,9.665e-05,0.0,0 STARLINK-3920,1 52575U 22051AR  24127.08356049  .00009665  00000-0  62440-3 0  9990,2 52575  53.2150 258.5655 0000970  88.8922 271.2182 15.08847702110110,6917.857,95.437,540.393,539.051,0.0
52575.0,STARLINK-3920,PAYLOAD,2024-05-06 14:43:24,15.08853962,9.55e-05,53.2143,256.1874,87.4624,272.6477,0.00056505,8.72e-05,0.0,0 STARLINK-3920,1 52575U 22051AR  24127.61347773  .00008720  00000-0  56505-3 0  9999,2 52575  53.2143 256.1874 0000955  87.4624 272.6477 15.08853962110124,6917.838,95.437,540.363,539.042,0.0
52575.0,STARLINK-3920,PAYLOAD,2024-05-06 16:18:47,15.08856445,0.0001098,53.2156,255.8923,81.8967,278.2149,0.00059628,9.219e-05,0.0,0 STARLINK-3920,1 52575U 22051AR  24127.67971732  .00009219  00000-0  59628-3 0  9996,2 52575  53.2156 255.8923 0001098  81.8967 278.2149 15.08856445110134,6917.83,95.437,540.455,538.936,0.0
52575.0,STARLINK-3920,PAYLOAD,2024-05-07 01:51:06,15.08855293,0.0001192,53.2174,254.1086,80.2414,279.8712,0.00047381,7.264e-05,0.0,0 STARLINK-3920,1 52575U 22051AR  24128.07715688  .00007264  00000-0  47381-3 0  9998,2 52575  53.2174 254.1086 0001192  80.2414 279.8712 15.08855293110268,6917.834,95.437,540.523,538.874,0.0
52575.0,STARLINK-3920,PAYLOAD,2024-05-07 12:58:48,15.0884258,0.0001434,53.2172,252.0252,94.4082,265.7074,0.00013071,1.793e-05,0.0,0 STARLINK-3920,1 52575U 22051AR  24128.54083952  .00001793  00000-0  13071-3 0  9992,2 52575  53.2172 252.0252 0001434  94.4082 265.7074 15.08842580110333,6917.873,95.437,540.73,538.745,0.0
52575.0,STARLINK-3920,PAYLOAD,2024-05-07 14:34:11,15.08840376,9.9e-05,53.2161,251.7285,105.1597,254.9505,6.8578e-05,8.04e-06,0.0,0 STARLINK-3920,1 52575U 22051AR  24128.60707851  .00000804  00000-0  68578-4 0  9995,2 52575  53.2161 251.7285 0000990 105.1597 254.9505 15.08840376110273,6917.879,95.438,540.429,539.059,0.0
52575.0,STARLINK-3920,PAYLOAD,2024-05-08 14:24:58,15.08847875,0.0001084,53.2175,247.2688,93.6805,266.4311,0.00026183,3.883e-05,0.0,0 STARLINK-3920,1 52575U 22051AR  24129.60067873  .00003883  00000-0  26183-3 0  9994,2 52575  53.2175 247.2688 0001084  93.6805 266.4311 15.08847875110424,6917.856,95.437,540.471,538.971,0.0
52575.0,STARLINK-3920,PAYLOAD,2024-05-09 12:40:23,15.08837652,0.0001154,53.2168,243.1047,94.1628,265.9496,0.00013363,1.839e-05,0.0,0 STARLINK-3920,1 52575U 22051AR  24130.52804502  .00001839  00000-0  13363-3 0  9990,2 52575  53.2168 243.1047 0001154  94.1628 265.9496 15.08837652110630,6917.888,95.438,540.551,538.954,0.0
52575.0,STARLINK-3920,PAYLOAD,2024-05-09 14:15:46,15.08842309,9.94e-05,53.2161,242.8061,92.5655,267.545,0.00016082,2.273e-05,0.0,0 STARLINK-3920,1 52575U 22051AR  24130.59428253  .00002273  00000-0  16082-3 0  9996,2 52575  53.2161 242.8061 0000994  92.5655 267.5450 15.08842309110574,6917.873,95.437,540.426,539.051,0.0
52575.0,STARLINK-3920,PAYLOAD,2024-05-10 14:06:33,15.08847831,0.0001052,53.2163,238.3514,90.5468,269.5645,0.00027858,4.149e-05,0.0,0 STARLINK-3920,1 52575U 22051AR  24131.58788327  .00004149  00000-0  27858-3 0  9994,2 52575  53.2163 238.3514 0001052  90.5468 269.5645 15.08847831110792,6917.856,95.437,540.449,538.994,0.0
52575.0,STARLINK-3920,PAYLOAD,2024-05-11 13:57:17,15.08947392,8.13e-05,53.2169,233.8878,71.7674,288.3406,0.0032234,0.00051539,0.0,0 STARLINK-3920,1 52575U 22051AR  24132.58144936  .00051539  00000-0  32234-2 0  9995,2 52575  53.2169 233.8878 0000813  71.7674 288.3406 15.08947392110949,6917.552,95.431,539.98,538.855,0.0
52575.0,STARLINK-3920,PAYLOAD,2024-05-11 23:29:37,15.08821282,0.0002402,53.2162,232.1032,80.6622,279.4642,-0.0019716,-0.00031515,0.0,0 STARLINK-3920,1 52575U 22051AR  24132.97891177 -.00031515  00000-0 -19716-2 0  9998,2 52575  53.2162 232.1032 0002402  80.6622 279.4642 15.08821282111004,6917.938,95.439,541.464,538.141,0.0
